STARLINK-31659          
1 59254U 24050A   26068.52250970  .00003722  00000+0  13770-3 0  9992
2 59254  53.1607 179.5954 0001446 108.1860 251.9299 15.30203311111704
HERMES-3                
1 63835U 25052BR  26068.93751242  .00020316  00000+0  69958-3 0  9995
2 63835  97.3987 324.6131 0007993 112.9583 247.2502 15.30039785 54863
